0 SL-8 R/B
1 14241U 83079B   13282.35756470  .00000121  00000-0  51022-4 0  5367
2 14241 074.0618 193.8068 0018442 247.5860 248.3737 14.35611414579494
0 SL-8 R/B
1 14241U 83079B   13283.79897709  .00000100  00000-0  43720-4 0  5371
2 14241 074.0618 191.1666 0018356 244.6537 137.8119 14.35611888579707
0 SL-8 R/B
1 14241U 83079B   13286.11427017  .00000159  00000-0  63967-4 0  5392
2 14241 074.0616 186.9257 0018274 240.0361 223.5164 14.35611921580036
0 SL-8 R/B
1 14241U 83079B   13287.17076497  .00000170  00000-0  67917-4 0  5405
2 14241 074.0614 184.9906 0018264 237.9273 283.6055 14.35612327580182
0 SL-8 R/B
1 14241U 83079B   13288.20691177  .00000223  00000-0  86116-4 0  5410
2 14241 074.0612 183.0927 0018253 235.8872 238.5069 14.35613208580333
0 SL-8 R/B
1 14241U 83079B   13289.25880505  .00000173  00000-0  69081-4 0  5428
2 14241 074.0609 181.1660 0018220 233.7973 274.8101 14.35613536580485
0 SL-8 R/B
1 14241U 83079B   13290.30231300  .00000182  00000-0  72068-4 0  5439
2 14241 074.0607 179.2547 0018180 231.7044 267.7975 14.35613992580630
0 SL-8 R/B
1 14241U 83079B   13292.18069179  .00000144  00000-0  58834-4 0  5444
2 14241 074.0605 175.8140 0018132 227.9447 255.5043 14.35614982580901
0 SL-8 R/B
1 14241U 83079B   13293.22808341  .00000173  00000-0  69003-4 0  5455
2 14241 074.0604 173.8955 0018089 225.8074 268.6063 14.35615473581056
0 SL-8 R/B
1 14241U 83079B   13294.27432532  .00000172  00000-0  68551-4 0  5463
2 14241 074.0603 171.9790 0018054 223.7075 275.7326 14.35615974581205
0 SL-8 R/B
1 14241U 83079B   13296.15799105  .00000165  00000-0  66299-4 0  5474
2 14241 074.0603 168.5286 0017986 219.8795 290.8338 14.35616951581471
